{
    "links": {
        "self": "http://www.neowsapp.com/rest/v1/neo/3297364?api_key=iIulBulltgU6a56xZRHN4H3l9WmuAYTsLGpBGhQ2"
    },
    "id": "3297364",
    "neo_reference_id": "3297364",
    "name": "(2005 UA6)",
    "designation": "2005 UA6",
    "nasa_jpl_url": "http://ssd.jpl.nasa.gov/sbdb.cgi?sstr=3297364",
    "absolute_magnitude_h": 23.3,
    "estimated_diameter": {
        "kilometers": {
            "estimated_diameter_min": 0.058150704,
            "estimated_diameter_max": 0.130028927
        },
        "meters": {
            "estimated_diameter_min": 58.1507039646,
            "estimated_diameter_max": 130.0289270043
        },
        "miles": {
            "estimated_diameter_min": 0.0361331611,
            "estimated_diameter_max": 0.0807962044
        },
        "feet": {
            "estimated_diameter_min": 190.7831555951,
            "estimated_diameter_max": 426.6041048727
        }
    },
    "is_potentially_hazardous_asteroid": false,
    "close_approach_data": [
        {
            "close_approach_date": "2003-10-11",
            "close_approach_date_full": "2003-Oct-11 22:30",
            "epoch_date_close_approach": 1065911400000,
            "relative_velocity": {
                "kilometers_per_second": "4.0352187623",
                "kilometers_per_hour": "14526.787544166",
                "miles_per_hour": "9026.380849318"
            },
            "miss_distance": {
                "astronomical": "1.8283671656",
                "lunar": "711.2348274184",
                "kilometers": "273519833.551697272",
                "miles": "169957343.5422834736"
            },
            "orbiting_body": "Juptr"
        },
        {
            "close_approach_date": "2005-10-21",
            "close_approach_date_full": "2005-Oct-21 17:46",
            "epoch_date_close_approach": 1129916760000,
            "relative_velocity": {
                "kilometers_per_second": "12.5840284056",
                "kilometers_per_hour": "45302.5022600477",
                "miles_per_hour": "28149.2131404168"
            },
            "miss_distance": {
                "astronomical": "0.022126386",
                "lunar": "8.607164154",
                "kilometers": "3310060.21639782",
                "miles": "2056776.044497116"
            },
            "orbiting_body": "Earth"
        },
        {
            "close_approach_date": "2035-11-01",
            "close_approach_date_full": "2035-Nov-01 08:38",
            "epoch_date_close_approach": 2077519080000,
            "relative_velocity": {
                "kilometers_per_second": "15.3414656435",
                "kilometers_per_hour": "55229.2763164733",
                "miles_per_hour": "34317.3244978664"
            },
            "miss_distance": {
                "astronomical": "0.0918635466",
                "lunar": "35.7349196274",
                "kilometers": "13742590.902005742",
                "miles": "8539250.0162215596"
            },
            "orbiting_body": "Earth"
        }
    ],
    "orbital_data": {
        "orbit_id": "14",
        "orbit_determination_date": "2017-04-06 09:10:04",
        "first_observation_date": "2005-10-28",
        "last_observation_date": "2005-11-25",
        "data_arc_in_days": 28,
        "observations_used": 76,
        "orbit_uncertainty": "7",
        "minimum_orbit_intersection": ".0160568",
        "jupiter_tisserand_invariant": "3.216",
        "epoch_osculation": "2459000.5",
        "eccentricity": ".6239731882954762",
        "semi_major_axis": "2.412445982102232",
        "inclination": "5.7423756287256",
        "ascending_node_longitude": "37.30716963187913",
        "orbital_period": "1368.626117564676",
        "perihelion_distance": ".907144371059291",
        "perihelion_argument": "310.5813632544118",
        "aphelion_distance": "3.917747593145174",
        "perihelion_time": "2459118.577102465866",
        "mean_anomaly": "328.9412935043578",
        "mean_motion": ".2630375055538042",
        "equinox": "J2000",
        "orbit_class": {
            "orbit_class_type": "APO",
            "orbit_class_description": "Near-Earth asteroid orbits which cross the Earth’s orbit similar to that of 1862 Apollo",
            "orbit_class_range": "a (semi-major axis) > 1.0 AU; q (perihelion) < 1.017 AU"
        }
    },
    "is_sentry_object": false
}